STARLINK-35783          
1 66286U 25247X   25322.91671296 -.01369476  00000+0 -26449-1 0  9996
2 66286  53.1595 349.9849 0000609  56.4251  73.7987 15.50299857  3748
STARLINK-34884          
1 66287U 25247Y   25322.91671296 -.01369313  00000+0 -26446-1 0  9994
2 66287  53.1595 349.9813 0000579  57.6839  74.4571 15.50299625  4067
STARLINK-34896          
1 66288U 25247Z   25322.91671296 -.01369193  00000+0 -26443-1 0  9998
2 66288  53.1594 349.9773 0000607  63.0500  71.0083 15.50299516  4060
STARLINK-35802          
1 66289U 25247AA  25322.91671296 -.01372755  00000+0 -26518-1 0  9990
2 66289  53.1594 349.9730 0000581  52.2651  83.7097 15.50301670  3746
STARLINK-35799          
1 66290U 25247AB  25322.91671296 -.01373409  00000+0 -26533-1 0  9996
2 66290  53.1596 349.9694 0000600  60.2290  77.6639 15.50300879  4115
STARLINK-35800          
1 66291U 25247AC  25322.91671296 -.01352852  00000+0 -26102-1 0  9998
2 66291  53.1595 349.9605 0000591  92.1963  49.5311 15.50289940  4117
STARLINK-35798          
1 66292U 25247AD  25322.91671296 -.01355130  00000+0 -26149-1 0  9992
2 66292  53.1596 349.9648 0000638  92.1122  47.6973 15.50291876  3792
LVM3 R/B                
1 66310U 25249A   25322.62267370  .00037314 -38928-6  10479-2 0  9993
2 66310  21.3415 151.3753 6675834 194.7984 127.0882  3.13201679   527
CMS-03 (GSAT-7R)        
1 66311U 25249B   25322.75115626 -.00000239  00000+0  00000+0 0  9999
2 66311   0.2014 271.5019 0004671 197.7802 312.6688  1.00274473   241
YAOGAN-46               
1 66313U 25250A   25316.61346953 -.00000009  00000+0  00000+0 0  9995
2 66313  20.0301 111.3998 0049241 123.4899 237.0003  5.35115895   585
SENTINEL-1D             
1 66315U 25251A   25322.93672117  .00000241  00000+0  60300-4 0  9995
2 66315  98.1939 328.2678 0000443 243.1808 116.9346 14.59586956  2061
QPS-SAR-14 (YACHIHOKO-I)
1 66316U 25252A   25322.72531203  .00006095  00000+0  53078-3 0  9990
2 66316  42.0041 206.9876 0008645 343.5894  16.4650 14.97363587  1930
