CCSDS_OMM_VERS = 2.0
CREATION_DATE  = 
ORIGINATOR     = 

OBJECT_NAME    = STARLINK-35783
OBJECT_ID      = 2025-247X
CENTER_NAME    = EARTH
REF_FRAME      = TEME
TIME_SYSTEM    = UTC
MEAN_ELEMENT_THEORY = SGP/SGP4

EPOCH          = 2025-11-18T22:00:03.999744
MEAN_MOTION    = 15.50299857
ECCENTRICITY   = .00006092
INCLINATION    = 53.1595
RA_OF_ASC_NODE = 349.9849
ARG_OF_PERICENTER = 56.4251
MEAN_ANOMALY   = 73.7987

EPHEMERIS_TYPE = 0
CLASSIFICATION_TYPE = U
NORAD_CAT_ID   = 66286
ELEMENT_SET_NO = 999
REV_AT_EPOCH   = 374
BSTAR          = -.26449129E-1
MEAN_MOTION_DOT = -.1369476E-1
MEAN_MOTION_DDOT = 0

CCSDS_OMM_VERS = 2.0
CREATION_DATE  = 
ORIGINATOR     = 

OBJECT_NAME    = STARLINK-34884
OBJECT_ID      = 2025-247Y
CENTER_NAME    = EARTH
REF_FRAME      = TEME
TIME_SYSTEM    = UTC
MEAN_ELEMENT_THEORY = SGP/SGP4

EPOCH          = 2025-11-18T22:00:03.999744
MEAN_MOTION    = 15.50299625
ECCENTRICITY   = .00005794
INCLINATION    = 53.1595
RA_OF_ASC_NODE = 349.9813
ARG_OF_PERICENTER = 57.6839
MEAN_ANOMALY   = 74.4571

EPHEMERIS_TYPE = 0
CLASSIFICATION_TYPE = U
NORAD_CAT_ID   = 66287
ELEMENT_SET_NO = 999
REV_AT_EPOCH   = 406
BSTAR          = -.26446081E-1
MEAN_MOTION_DOT = -.1369313E-1
MEAN_MOTION_DDOT = 0

CCSDS_OMM_VERS = 2.0
CREATION_DATE  = 
ORIGINATOR     = 

OBJECT_NAME    = STARLINK-34896
OBJECT_ID      = 2025-247Z
CENTER_NAME    = EARTH
REF_FRAME      = TEME
TIME_SYSTEM    = UTC
MEAN_ELEMENT_THEORY = SGP/SGP4

EPOCH          = 2025-11-18T22:00:03.999744
MEAN_MOTION    = 15.50299516
ECCENTRICITY   = .00006079
INCLINATION    = 53.1594
RA_OF_ASC_NODE = 349.9773
ARG_OF_PERICENTER = 63.0500
MEAN_ANOMALY   = 71.0083

EPHEMERIS_TYPE = 0
CLASSIFICATION_TYPE = U
NORAD_CAT_ID   = 66288
ELEMENT_SET_NO = 999
REV_AT_EPOCH   = 406
BSTAR          = -.26443391E-1
MEAN_MOTION_DOT = -.1369193E-1
MEAN_MOTION_DDOT = 0

CCSDS_OMM_VERS = 2.0
CREATION_DATE  = 
ORIGINATOR     = 

OBJECT_NAME    = STARLINK-35802
OBJECT_ID      = 2025-247AA
CENTER_NAME    = EARTH
REF_FRAME      = TEME
TIME_SYSTEM    = UTC
MEAN_ELEMENT_THEORY = SGP/SGP4

EPOCH          = 2025-11-18T22:00:03.999744
MEAN_MOTION    = 15.50301670
ECCENTRICITY   = .0000581
INCLINATION    = 53.1594
RA_OF_ASC_NODE = 349.9730
ARG_OF_PERICENTER = 52.2651
MEAN_ANOMALY   = 83.7097

EPHEMERIS_TYPE = 0
CLASSIFICATION_TYPE = U
NORAD_CAT_ID   = 66289
ELEMENT_SET_NO = 999
REV_AT_EPOCH   = 374
BSTAR          = -.26518015E-1
MEAN_MOTION_DOT = -.1372755E-1
MEAN_MOTION_DDOT = 0

CCSDS_OMM_VERS = 2.0
CREATION_DATE  = 
ORIGINATOR     = 

OBJECT_NAME    = STARLINK-35799
OBJECT_ID      = 2025-247AB
CENTER_NAME    = EARTH
REF_FRAME      = TEME
TIME_SYSTEM    = UTC
MEAN_ELEMENT_THEORY = SGP/SGP4

EPOCH          = 2025-11-18T22:00:03.999744
MEAN_MOTION    = 15.50300879
ECCENTRICITY   = .00006
INCLINATION    = 53.1596
RA_OF_ASC_NODE = 349.9694
ARG_OF_PERICENTER = 60.2290
MEAN_ANOMALY   = 77.6639

EPHEMERIS_TYPE = 0
CLASSIFICATION_TYPE = U
NORAD_CAT_ID   = 66290
ELEMENT_SET_NO = 999
REV_AT_EPOCH   = 411
BSTAR          = -.26532689E-1
MEAN_MOTION_DOT = -.1373409E-1
MEAN_MOTION_DDOT = 0

CCSDS_OMM_VERS = 2.0
CREATION_DATE  = 
ORIGINATOR     = 

OBJECT_NAME    = STARLINK-35800
OBJECT_ID      = 2025-247AC
CENTER_NAME    = EARTH
REF_FRAME      = TEME
TIME_SYSTEM    = UTC
MEAN_ELEMENT_THEORY = SGP/SGP4

EPOCH          = 2025-11-18T22:00:03.999744
MEAN_MOTION    = 15.50289940
ECCENTRICITY   = .0000591
INCLINATION    = 53.1595
RA_OF_ASC_NODE = 349.9605
ARG_OF_PERICENTER = 92.1963
MEAN_ANOMALY   = 49.5311

EPHEMERIS_TYPE = 0
CLASSIFICATION_TYPE = U
NORAD_CAT_ID   = 66291
ELEMENT_SET_NO = 999
REV_AT_EPOCH   = 411
BSTAR          = -.26102199E-1
MEAN_MOTION_DOT = -.1352852E-1
MEAN_MOTION_DDOT = 0

CCSDS_OMM_VERS = 2.0
CREATION_DATE  = 
ORIGINATOR     = 

OBJECT_NAME    = STARLINK-35798
OBJECT_ID      = 2025-247AD
CENTER_NAME    = EARTH
REF_FRAME      = TEME
TIME_SYSTEM    = UTC
MEAN_ELEMENT_THEORY = SGP/SGP4

EPOCH          = 2025-11-18T22:00:03.999744
MEAN_MOTION    = 15.50291876
ECCENTRICITY   = .00006388
INCLINATION    = 53.1596
RA_OF_ASC_NODE = 349.9648
ARG_OF_PERICENTER = 92.1122
MEAN_ANOMALY   = 47.6973

EPHEMERIS_TYPE = 0
CLASSIFICATION_TYPE = U
NORAD_CAT_ID   = 66292
ELEMENT_SET_NO = 999
REV_AT_EPOCH   = 379
BSTAR          = -.26148836E-1
MEAN_MOTION_DOT = -.135513E-1
MEAN_MOTION_DDOT = 0

CCSDS_OMM_VERS = 2.0
CREATION_DATE  = 
ORIGINATOR     = 

OBJECT_NAME    = LVM3 R/B
OBJECT_ID      = 2025-249A
CENTER_NAME    = EARTH
REF_FRAME      = TEME
TIME_SYSTEM    = UTC
MEAN_ELEMENT_THEORY = SGP/SGP4

EPOCH          = 2025-11-18T14:56:39.007680
MEAN_MOTION    = 3.13201679
ECCENTRICITY   = .66758348
INCLINATION    = 21.3415
RA_OF_ASC_NODE = 151.3753
ARG_OF_PERICENTER = 194.7984
MEAN_ANOMALY   = 127.0882

EPHEMERIS_TYPE = 0
CLASSIFICATION_TYPE = U
NORAD_CAT_ID   = 66310
ELEMENT_SET_NO = 999
REV_AT_EPOCH   = 52
BSTAR          = .10478924E-2
MEAN_MOTION_DOT = .37314E-3
MEAN_MOTION_DDOT = -.389276E-6

CCSDS_OMM_VERS = 2.0
CREATION_DATE  = 
ORIGINATOR     = 

OBJECT_NAME    = CMS-03 (GSAT-7R)
OBJECT_ID      = 2025-249B
CENTER_NAME    = EARTH
REF_FRAME      = TEME
TIME_SYSTEM    = UTC
MEAN_ELEMENT_THEORY = SGP/SGP4

EPOCH          = 2025-11-18T18:01:39.900864
MEAN_MOTION    = 1.00274473
ECCENTRICITY   = .00046716
INCLINATION    = 0.2014
RA_OF_ASC_NODE = 271.5019
ARG_OF_PERICENTER = 197.7802
MEAN_ANOMALY   = 312.6688

EPHEMERIS_TYPE = 0
CLASSIFICATION_TYPE = U
NORAD_CAT_ID   = 66311
ELEMENT_SET_NO = 999
REV_AT_EPOCH   = 24
BSTAR          = 0
MEAN_MOTION_DOT = -.239E-5
MEAN_MOTION_DDOT = 0

CCSDS_OMM_VERS = 2.0
CREATION_DATE  = 
ORIGINATOR     = 

OBJECT_NAME    = YAOGAN-46
OBJECT_ID      = 2025-250A
CENTER_NAME    = EARTH
REF_FRAME      = TEME
TIME_SYSTEM    = UTC
MEAN_ELEMENT_THEORY = SGP/SGP4

EPOCH          = 2025-11-12T14:43:23.767392
MEAN_MOTION    = 5.35115895
ECCENTRICITY   = .00492414
INCLINATION    = 20.0301
RA_OF_ASC_NODE = 111.3998
ARG_OF_PERICENTER = 123.4899
MEAN_ANOMALY   = 237.0003

EPHEMERIS_TYPE = 0
CLASSIFICATION_TYPE = U
NORAD_CAT_ID   = 66313
ELEMENT_SET_NO = 999
REV_AT_EPOCH   = 58
BSTAR          = 0
MEAN_MOTION_DOT = -.9E-7
MEAN_MOTION_DDOT = 0

CCSDS_OMM_VERS = 2.0
CREATION_DATE  = 
ORIGINATOR     = 

OBJECT_NAME    = SENTINEL-1D
OBJECT_ID      = 2025-251A
CENTER_NAME    = EARTH
REF_FRAME      = TEME
TIME_SYSTEM    = UTC
MEAN_ELEMENT_THEORY = SGP/SGP4

EPOCH          = 2025-11-18T22:28:52.709088
MEAN_MOTION    = 14.59586956
ECCENTRICITY   = .00004439
INCLINATION    = 98.1939
RA_OF_ASC_NODE = 328.2678
ARG_OF_PERICENTER = 243.1808
MEAN_ANOMALY   = 116.9346

EPHEMERIS_TYPE = 0
CLASSIFICATION_TYPE = U
NORAD_CAT_ID   = 66315
ELEMENT_SET_NO = 999
REV_AT_EPOCH   = 206
BSTAR          = .60299767E-4
MEAN_MOTION_DOT = .241E-5
MEAN_MOTION_DDOT = 0

CCSDS_OMM_VERS = 2.0
CREATION_DATE  = 
ORIGINATOR     = 

OBJECT_NAME    = QPS-SAR-14 (YACHIHOKO-I)
OBJECT_ID      = 2025-252A
CENTER_NAME    = EARTH
REF_FRAME      = TEME
TIME_SYSTEM    = UTC
MEAN_ELEMENT_THEORY = SGP/SGP4

EPOCH          = 2025-11-18T17:24:26.959392
MEAN_MOTION    = 14.97363587
ECCENTRICITY   = .00086453
INCLINATION    = 42.0041
RA_OF_ASC_NODE = 206.9876
ARG_OF_PERICENTER = 343.5894
MEAN_ANOMALY   = 16.4650

EPHEMERIS_TYPE = 0
CLASSIFICATION_TYPE = U
NORAD_CAT_ID   = 66316
ELEMENT_SET_NO = 999
REV_AT_EPOCH   = 193
BSTAR          = .53077796E-3
MEAN_MOTION_DOT = .6095E-4
MEAN_MOTION_DDOT = 0

